[{"OBJECT_NAME":"O3B FM10","OBJECT_ID":"2014-083A","EPOCH":"2026-03-27T09:41:53.331936","MEAN_MOTION":5.00115499,"ECCENTRICITY":0.0002686,"INCLINATION":0.0455,"RA_OF_ASC_NODE":334.8109,"ARG_OF_PERICENTER":31.2091,"MEAN_ANOMALY":353.9787,"EPHEMERIS_TYPE":0,"CLASSIFICATION_TYPE":"U","NORAD_CAT_ID":40348,"ELEMENT_SET_NO":999,"REV_AT_EPOCH":20580,"BSTAR":0,"MEAN_MOTION_DOT":-2.8e-7,"MEAN_MOTION_DDOT":0},{"OBJECT_NAME":"O3B FM11","OBJECT_ID":"2014-083B","EPOCH":"2026-03-27T10:00:10.642176","MEAN_MOTION":5.00115538,"ECCENTRICITY":0.0003039,"INCLINATION":0.0578,"RA_OF_ASC_NODE":0.2533,"ARG_OF_PERICENTER":353.3632,"MEAN_ANOMALY":6.3752,"EPHEMERIS_TYPE":0,"CLASSIFICATION_TYPE":"U","NORAD_CAT_ID":40349,"ELEMENT_SET_NO":999,"REV_AT_EPOCH":20582,"BSTAR":0,"MEAN_MOTION_DOT":-2.8e-7,"MEAN_MOTION_DDOT":0},{"OBJECT_NAME":"O3B FM12","OBJECT_ID":"2014-083C","EPOCH":"2026-03-29T01:01:54.606432","MEAN_MOTION":5.0011588,"ECCENTRICITY":0.0002598,"INCLINATION":0.057,"RA_OF_ASC_NODE":359.6671,"ARG_OF_PERICENTER":2.7427,"MEAN_ANOMALY":357.5867,"EPHEMERIS_TYPE":0,"CLASSIFICATION_TYPE":"U","NORAD_CAT_ID":40350,"ELEMENT_SET_NO":999,"REV_AT_EPOCH":20591,"BSTAR":0,"MEAN_MOTION_DOT":-2.9e-7,"MEAN_MOTION_DDOT":0},{"OBJECT_NAME":"O3B FM9","OBJECT_ID":"2014-083D","EPOCH":"2026-03-29T01:40:32.728800","MEAN_MOTION":5.00115908,"ECCENTRICITY":0.0002709,"INCLINATION":0.059,"RA_OF_ASC_NODE":0.2606,"ARG_OF_PERICENTER":6.2009,"MEAN_ANOMALY":353.5374,"EPHEMERIS_TYPE":0,"CLASSIFICATION_TYPE":"U","NORAD_CAT_ID":40351,"ELEMENT_SET_NO":999,"REV_AT_EPOCH":20605,"BSTAR":0,"MEAN_MOTION_DOT":-2.9e-7,"MEAN_MOTION_DDOT":0},{"OBJECT_NAME":"ASTRA 2G","OBJECT_ID":"2014-089A","EPOCH":"2026-03-29T02:53:53.098944","MEAN_MOTION":1.00269236,"ECCENTRICITY":0.0004735,"INCLINATION":0.0216,"RA_OF_ASC_NODE":8.2515,"ARG_OF_PERICENTER":28.4358,"MEAN_ANOMALY":221.5062,"EPHEMERIS_TYPE":0,"CLASSIFICATION_TYPE":"U","NORAD_CAT_ID":40364,"ELEMENT_SET_NO":999,"REV_AT_EPOCH":4116,"BSTAR":0,"MEAN_MOTION_DOT":0,"MEAN_MOTION_DDOT":0},{"OBJECT_NAME":"SES-9","OBJECT_ID":"2016-013A","EPOCH":"2026-03-28T23:51:28.317600","MEAN_MOTION":1.00270557,"ECCENTRICITY":0.0001683,"INCLINATION":0.0186,"RA_OF_ASC_NODE":244.0927,"ARG_OF_PERICENTER":159.2929,"MEAN_ANOMALY":249.1648,"EPHEMERIS_TYPE":0,"CLASSIFICATION_TYPE":"U","NORAD_CAT_ID":41380,"ELEMENT_SET_NO":999,"REV_AT_EPOCH":3663,"BSTAR":0,"MEAN_MOTION_DOT":-3.64e-6,"MEAN_MOTION_DDOT":0},{"OBJECT_NAME":"SES-10","OBJECT_ID":"2017-017A","EPOCH":"2026-03-29T00:44:08.266272","MEAN_MOTION":1.0027222,"ECCENTRICITY":0.0002652,"INCLINATION":0.0338,"RA_OF_ASC_NODE":51.0786,"ARG_OF_PERICENTER":322.5275,"MEAN_ANOMALY":116.9572,"EPHEMERIS_TYPE":0,"CLASSIFICATION_TYPE":"U","NORAD_CAT_ID":42432,"ELEMENT_SET_NO":999,"REV_AT_EPOCH":3295,"BSTAR":0,"MEAN_MOTION_DOT":-2.92e-6,"MEAN_MOTION_DDOT":0},{"OBJECT_NAME":"SES-15","OBJECT_ID":"2017-026A","EPOCH":"2026-03-28T22:43:40.273824","MEAN_MOTION":1.00270319,"ECCENTRICITY":6.82e-5,"INCLINATION":0.0363,"RA_OF_ASC_NODE":335.6778,"ARG_OF_PERICENTER":15.9177,"MEAN_ANOMALY":46.5064,"EPHEMERIS_TYPE":0,"CLASSIFICATION_TYPE":"U","NORAD_CAT_ID":42709,"ELEMENT_SET_NO":999,"REV_AT_EPOCH":662,"BSTAR":0,"MEAN_MOTION_DOT":4.0e-7,"MEAN_MOTION_DDOT":0},{"OBJECT_NAME":"SES-11 (ECHOSTAR 105)","OBJECT_ID":"2017-063A","EPOCH":"2026-03-29T03:58:39.387360","MEAN_MOTION":1.00271708,"ECCENTRICITY":0.0002575,"INCLINATION":0.0463,"RA_OF_ASC_NODE":24.9149,"ARG_OF_PERICENTER":351.1703,"MEAN_ANOMALY":125.1925,"EPHEMERIS_TYPE":0,"CLASSIFICATION_TYPE":"U","NORAD_CAT_ID":42967,"ELEMENT_SET_NO":999,"REV_AT_EPOCH":3092,"BSTAR":0,"MEAN_MOTION_DOT":-1.09e-6,"MEAN_MOTION_DDOT":0},{"OBJECT_NAME":"SES-14","OBJECT_ID":"2018-012B","EPOCH":"2026-03-29T00:49:37.738848","MEAN_MOTION":1.00273709,"ECCENTRICITY":8.95e-5,"INCLINATION":0.015,"RA_OF_ASC_NODE":133.0016,"ARG_OF_PERICENTER":214.2144,"MEAN_ANOMALY":164.1253,"EPHEMERIS_TYPE":0,"CLASSIFICATION_TYPE":"U","NORAD_CAT_ID":43175,"ELEMENT_SET_NO":999,"REV_AT_EPOCH":622,"BSTAR":0,"MEAN_MOTION_DOT":-2.98e-6,"MEAN_MOTION_DDOT":0},{"OBJECT_NAME":"O3B FM15","OBJECT_ID":"2018-024A","EPOCH":"2026-03-28T22:28:51.407040","MEAN_MOTION":5.00115661,"ECCENTRICITY":0.0002658,"INCLINATION":0.05,"RA_OF_ASC_NODE":2.8478,"ARG_OF_PERICENTER":1.3696,"MEAN_ANOMALY":355.7802,"EPHEMERIS_TYPE":0,"CLASSIFICATION_TYPE":"U","NORAD_CAT_ID":43231,"ELEMENT_SET_NO":999,"REV_AT_EPOCH":14700,"BSTAR":0,"MEAN_MOTION_DOT":-2.9e-7,"MEAN_MOTION_DDOT":0},{"OBJECT_NAME":"O3B FM16","OBJECT_ID":"2018-024B","EPOCH":"2026-03-28T23:44:15.621216","MEAN_MOTION":5.00115912,"ECCENTRICITY":0.000271,"INCLINATION":0.0467,"RA_OF_ASC_NODE":5.8797,"ARG_OF_PERICENTER":357.6765,"MEAN_ANOMALY":356.4411,"EPHEMERIS_TYPE":0,"CLASSIFICATION_TYPE":"U","NORAD_CAT_ID":43232,"ELEMENT_SET_NO":999,"REV_AT_EPOCH":14692,"BSTAR":0,"MEAN_MOTION_DOT":-2.9e-7,"MEAN_MOTION_DDOT":0},{"OBJECT_NAME":"O3B FM14","OBJECT_ID":"2018-024C","EPOCH":"2026-03-29T00:42:57.808800","MEAN_MOTION":5.00115648,"ECCENTRICITY":0.0002856,"INCLINATION":0.0453,"RA_OF_ASC_NODE":5.2544,"ARG_OF_PERICENTER":1.8335,"MEAN_ANOMALY":352.9115,"EPHEMERIS_TYPE":0,"CLASSIFICATION_TYPE":"U","NORAD_CAT_ID":43233,"ELEMENT_SET_NO":999,"REV_AT_EPOCH":14694,"BSTAR":0,"MEAN_MOTION_DOT":-2.9e-7,"MEAN_MOTION_DDOT":0},{"OBJECT_NAME":"O3B FM13","OBJECT_ID":"2018-024D","EPOCH":"2026-03-25T16:44:28.678560","MEAN_MOTION":5.00115556,"ECCENTRICITY":0.00039678,"INCLINATION":0.047,"RA_OF_ASC_NODE":335.8508,"ARG_OF_PERICENTER":348.6026,"MEAN_ANOMALY":35.5167,"EPHEMERIS_TYPE":0,"CLASSIFICATION_TYPE":"U","NORAD_CAT_ID":43234,"ELEMENT_SET_NO":999,"REV_AT_EPOCH":14688,"BSTAR":0,"MEAN_MOTION_DOT":-2.4e-7,"MEAN_MOTION_DDOT":0},{"OBJECT_NAME":"SES-12","OBJECT_ID":"2018-049A","EPOCH":"2026-03-29T01:30:18.838656","MEAN_MOTION":1.00271607,"ECCENTRICITY":0.0001998,"INCLINATION":0.0425,"RA_OF_ASC_NODE":31.214,"ARG_OF_PERICENTER":271.9611,"MEAN_ANOMALY":0.8604,"EPHEMERIS_TYPE":0,"CLASSIFICATION_TYPE":"U","NORAD_CAT_ID":43488,"ELEMENT_SET_NO":999,"REV_AT_EPOCH":2861,"BSTAR":0,"MEAN_MOTION_DOT":-2.89e-6,"MEAN_MOTION_DDOT":0},{"OBJECT_NAME":"O3B FM20","OBJECT_ID":"2019-020A","EPOCH":"2026-03-28T20:32:36.194208","MEAN_MOTION":5.00115487,"ECCENTRICITY":0.0002697,"INCLINATION":0.0528,"RA_OF_ASC_NODE":0.8112,"ARG_OF_PERICENTER":355.2694,"MEAN_ANOMALY":3.9126,"EPHEMERIS_TYPE":0,"CLASSIFICATION_TYPE":"U","NORAD_CAT_ID":44112,"ELEMENT_SET_NO":999,"REV_AT_EPOCH":12755,"BSTAR":0,"MEAN_MOTION_DOT":-2.9e-7,"MEAN_MOTION_DDOT":0},{"OBJECT_NAME":"O3B FM19","OBJECT_ID":"2019-020B","EPOCH":"2026-03-29T01:59:29.476320","MEAN_MOTION":5.00115272,"ECCENTRICITY":0.0004062,"INCLINATION":0.0579,"RA_OF_ASC_NODE":352.9847,"ARG_OF_PERICENTER":13.0204,"MEAN_ANOMALY":353.9951,"EPHEMERIS_TYPE":0,"CLASSIFICATION_TYPE":"U","NORAD_CAT_ID":44113,"ELEMENT_SET_NO":999,"REV_AT_EPOCH":12743,"BSTAR":0,"MEAN_MOTION_DOT":-2.9e-7,"MEAN_MOTION_DDOT":0}]
